NORAD_CAT_ID,OBJECT_NAME,OBJECT_TYPE,EPOCH,MEAN_MOTION,ECCENTRICITY,INCLINATION,RA_OF_ASC_NODE,ARG_OF_PERICENTER,MEAN_ANOMALY,BSTAR,MEAN_MOTION_DOT,MEAN_MOTION_DDOT,TLE_LINE0,TLE_LINE1,TLE_LINE2,SEMIMAJOR_AXIS,PERIOD,APOGEE,PERIGEE,DECAYED
40536,KOMPSAT 3A,PAYLOAD,2022-12-26 12:12:22,15.12101592,0.0004352,97.5533,300.7087,97.3233,14.0598,0.00027757,4.715e-05,0.0,0 KOMPSAT 3A,1 40536U 15014A   22360.50859139  .00004715  00000-0  27757-3 0  9990,2 40536  97.5533 300.7087 0004352  97.3233  14.0598 15.12101592428062,6907.929,95.23200000000001,532.8,526.788,0.0
40536,KOMPSAT 3A,PAYLOAD,2022-12-26 19:46:24,15.12103553,0.0004375,97.5534,301.0206,97.4626,289.2226,0.00027031,4.59e-05,0.0,0 KOMPSAT 3A,1 40536U 15014A   22360.82389780  .00004590  00000-0  27031-3 0  9991,2 40536  97.5534 301.0206 0004375  97.4626 289.2226 15.12103553428111,6907.9230000000025,95.23200000000001,532.81,526.766,0.0
40536,KOMPSAT 3A,PAYLOAD,2022-12-26 21:33:37,15.12103798,0.0004417,97.5533,301.0943,97.57,334.1165,0.00026761,4.544e-05,0.0,0 KOMPSAT 3A,1 40536U 15014A   22360.89834529  .00004544  00000-0  26761-3 0  9992,2 40536  97.5533 301.0943 0004417  97.5700 334.1165 15.12103798428123,6907.922,95.23200000000001,532.8380000000002,526.736,0.0
40536,KOMPSAT 3A,PAYLOAD,2022-12-27 02:15:34,15.12104971,0.00044560000000000004,97.5535,301.2877,98.0157,318.8466,0.00026304,4.465e-05,0.0,0 KOMPSAT 3A,1 40536U 15014A   22361.09414530  .00004465  00000-0  26304-3 0  9996,2 40536  97.5535 301.2877 0004456  98.0157 318.8466 15.12104971428158,6907.919,95.23100000000001,532.862,526.705,0.0
40536,KOMPSAT 3A,PAYLOAD,2022-12-27 15:15:38,15.12108019,0.0004412,97.5536,301.8242,96.6917,27.1511,0.00025058,4.251e-05,0.0,0 KOMPSAT 3A,1 40536U 15014A   22361.63585738  .00004251  00000-0  25058-3 0  9993,2 40536  97.5536 301.8242 0004412  96.6917  27.1511 15.12108019428238,6907.909000000002,95.23100000000001,532.822,526.727,0.0
40536,KOMPSAT 3A,PAYLOAD,2022-12-27 19:51:02,15.12109281,0.0004431,97.5537,302.0134,94.984,349.2848,0.00024727,4.194e-05,0.0,0 KOMPSAT 3A,1 40536U 15014A   22361.82710730  .00004194  00000-0  24727-3 0  9994,2 40536  97.5537 302.0134 0004431  94.9840 349.2848 15.12109281428265,6907.906,95.23100000000001,532.831,526.71,0.0
40536,KOMPSAT 3A,PAYLOAD,2022-12-28 00:32:05,15.12110587,0.0004443000000000001,97.5537,302.2063,94.3726,331.6823,0.00024448,4.146e-05,0.0,0 KOMPSAT 3A,1 40536U 15014A   22362.02228333  .00004146  00000-0  24448-3 0  9997,2 40536  97.5537 302.2063 0004443  94.3726 331.6823 15.12110587428290,6907.901999999999,95.23100000000001,532.836,526.697,0.0
40536,KOMPSAT 3A,PAYLOAD,2022-12-28 05:35:16,15.12112185,0.0004455,97.5537,302.4145,93.9152,37.5483,0.00024304,4.122e-05,0.0,0 KOMPSAT 3A,1 40536U 15014A   22362.23283031  .00004122  00000-0  24304-3 0  9991,2 40536  97.5537 302.4145 0004455  93.9152  37.5483 15.12112185428328,6907.897,95.231,532.839,526.684,0.0
40536,KOMPSAT 3A,PAYLOAD,2022-12-28 10:11:37,15.12113511,0.0004461000000000001,97.5538,302.6045,93.7328,1.7759,0.00024097,4.086e-05,0.0,0 KOMPSAT 3A,1 40536U 15014A   22362.42474477  .00004086  00000-0  24097-3 0  9996,2 40536  97.5538 302.6045 0004461  93.7328   1.7759 15.12113511428356,6907.893,95.231,532.839,526.6759999999998,0.0
40536,KOMPSAT 3A,PAYLOAD,2022-12-28 16:38:58,15.12115206,0.0004468,97.5538,302.8708,93.2564,25.5746,0.00023682,4.015e-05,0.0,0 KOMPSAT 3A,1 40536U 15014A   22362.69372981  .00004015  00000-0  23682-3 0  9993,2 40536  97.5538 302.8708 0004468  93.2564  25.5746 15.12115206428395,6907.887,95.231,532.839,526.6659999999998,0.0
40536,KOMPSAT 3A,PAYLOAD,2022-12-29 07:06:18,15.12119808,0.0004478,97.5538,303.4667,91.2967,64.2558,0.00023368,3.961e-05,0.0,0 KOMPSAT 3A,1 40536U 15014A   22363.29604823  .00003961  00000-0  23368-3 0  9993,2 40536  97.5538 303.4667 0004478  91.2967  64.2558 15.12119808428485,6907.873000000001,95.231,532.832,526.645,0.0
40536,KOMPSAT 3A,PAYLOAD,2022-12-29 11:46:38,15.1212118,0.0004486000000000001,97.5539,303.6593,90.6854,43.9527,0.00023261,3.943e-05,0.0,0 KOMPSAT 3A,1 40536U 15014A   22363.49072646  .00003943  00000-0  23261-3 0  9999,2 40536  97.5539 303.6593 0004486  90.6854  43.9527 15.12121180428513,6907.869000000002,95.23,532.8330000000002,526.635,0.0
40536,KOMPSAT 3A,PAYLOAD,2022-12-29 19:15:25,15.12123644,0.00045,97.5539,303.9676,90.0186,300.0723,0.00023173,3.928e-05,0.0,0 KOMPSAT 3A,1 40536U 15014A   22363.80237900  .00003928  00000-0  23173-3 0  9995,2 40536  97.5539 303.9676 0004500  90.0186 300.0723 15.12123644428564,6907.861999999999,95.23,532.835,526.618,0.0
40536,KOMPSAT 3A,PAYLOAD,2022-12-30 03:19:00,15.12126346,0.0004521,97.5539,304.2998,89.0244,327.9847,0.00023154,3.925e-05,0.0,0 KOMPSAT 3A,1 40536U 15014A   22364.13819655  .00003925  00000-0  23154-3 0  9991,2 40536  97.5539 304.2998 0004521  89.0244 327.9847 15.12126346428614,6907.854,95.23,532.842,526.596,0.0
40536,KOMPSAT 3A,PAYLOAD,2022-12-30 14:56:40,15.12130502,0.0004557,97.5539,304.779,88.0605,84.7067,0.00023355,3.96e-05,0.0,0 KOMPSAT 3A,1 40536U 15014A   22364.62269084  .00003960  00000-0  23355-3 0  9992,2 40536  97.5539 304.7790 0004557  88.0605  84.7067 15.12130502428686,6907.8409999999985,95.23,532.854,526.558,0.0
40536,KOMPSAT 3A,PAYLOAD,2022-12-30 19:18:58,15.12132438,0.000452,97.5539,304.9591,87.9713,355.7543,0.00023615,4.005e-05,0.0,0 KOMPSAT 3A,1 40536U 15014A   22364.80484385  .00004005  00000-0  23615-3 0  9995,2 40536  97.5539 304.9591 0004520  87.9713 355.7543 15.12132438428719,6907.835,95.23,532.822,526.578,0.0
40536,KOMPSAT 3A,PAYLOAD,2022-12-31 06:45:59,15.12136819,0.0004493,97.5538,305.4311,87.0767,72.1767,0.00023891,4.053e-05,0.0,0 KOMPSAT 3A,1 40536U 15014A   22365.28194088  .00004053  00000-0  23891-3 0  9995,2 40536  97.5538 305.4311 0004493  87.0767  72.1767 15.12136819428785,6907.821999999999,95.229,532.79,526.5830000000002,0.0
40536,KOMPSAT 3A,PAYLOAD,2022-12-31 14:46:01,15.12140922,0.0004606,97.5538,305.7607,86.7556,86.0112,0.00024819,4.214e-05,0.0,0 KOMPSAT 3A,1 40536U 15014A   22365.61528992  .00004214  00000-0  24819-3 0  9997,2 40536  97.5538 305.7607 0004606  86.7556  86.0112 15.12140922428838,6907.809,95.229,532.856,526.492,0.0
40536,KOMPSAT 3A,PAYLOAD,2022-12-31 19:08:16,15.12143146,0.0004572,97.5538,305.9406,86.0097,357.5715,0.00025243,4.287e-05,0.0,0 KOMPSAT 3A,1 40536U 15014A   22365.79741510  .00004287  00000-0  25243-3 0  9991,2 40536  97.5538 305.9406 0004572  86.0097 357.5715 15.12143146428861,6907.802,95.229,532.826,526.509,0.0
40536,KOMPSAT 3A,PAYLOAD,2023-01-01 02:57:57,15.12147138,0.0004493,97.5537,306.2635,86.1137,331.8895,0.00025978,4.414e-05,0.0,0 KOMPSAT 3A,1 40536U 15014A   23001.12357733  .00004414  00000-0  25978-3 0  9993,2 40536  97.5537 306.2635 0004493  86.1137 331.8895 15.12147138428911,6907.79,95.229,532.759,526.552,0.0
40536,KOMPSAT 3A,PAYLOAD,2023-01-01 14:35:24,15.12153543,0.0004599,97.5538,306.7428,85.5624,87.4467,0.00027396,4.66e-05,0.0,0 KOMPSAT 3A,1 40536U 15014A   23001.60792449  .00004660  00000-0  27396-3 0  9992,2 40536  97.5538 306.7428 0004599  85.5624  87.4467 15.12153543428981,6907.771,95.228,532.813,526.4590000000002,0.0
40536,KOMPSAT 3A,PAYLOAD,2023-01-01 21:55:06,15.12157546,0.0004487,97.5537,307.0447,84.273,309.9053,0.00028154,4.791e-05,0.0,0 KOMPSAT 3A,1 40536U 15014A   23001.91326749  .00004791  00000-0  28154-3 0  9990,2 40536  97.5537 307.0447 0004487  84.2730 309.9053 15.12157546429032,6907.759,95.228,532.7230000000002,526.524,0.0
40536,KOMPSAT 3A,PAYLOAD,2023-01-02 06:18:54,15.12162287,0.0004442,97.5535,307.3908,84.1565,53.4034,0.00029021,4.941e-05,0.0,0 KOMPSAT 3A,1 40536U 15014A   23002.26313072  .00004941  00000-0  29021-3 0  9995,2 40536  97.5535 307.3908 0004442  84.1565  53.4034 15.12162287429084,6907.744000000002,95.228,532.678,526.5409999999998,0.0
40536,KOMPSAT 3A,PAYLOAD,2023-01-02 11:03:54,15.12165287,0.0004513,97.5535,307.5868,82.5491,51.7742,0.00029807,5.078e-05,0.0,0 KOMPSAT 3A,1 40536U 15014A   23002.46105169  .00005078  00000-0  29807-3 0  9997,2 40536  97.5535 307.5868 0004513  82.5491  51.7742 15.12165287429114,6907.735,95.228,532.717,526.482,0.0
40536,KOMPSAT 3A,PAYLOAD,2023-01-02 20:06:09,15.12170323,0.0004488000000000001,97.5535,307.9593,82.1063,300.849,0.00030676,5.228e-05,0.0,0 KOMPSAT 3A,1 40536U 15014A   23002.83761229  .00005228  00000-0  30676-3 0  9996,2 40536  97.5535 307.9593 0004488  82.1063 300.8490 15.12170323429176,6907.72,95.227,532.685,526.484,0.0
40536,KOMPSAT 3A,PAYLOAD,2023-01-03 04:25:14,15.12174539,0.0004439,97.5536,308.302,82.0561,26.4338,0.00031088,5.3e-05,0.0,0 KOMPSAT 3A,1 40536U 15014A   23003.18419314  .00005300  00000-0  31088-3 0  9999,2 40536  97.5536 308.3020 0004439  82.0561  26.4338 15.12174539429226,6907.7069999999985,95.227,532.638,526.505,0.0
40536,KOMPSAT 3A,PAYLOAD,2023-01-03 09:22:51,15.12177113,0.0004504,97.5536,308.5065,81.4642,71.4342,0.00031396,5.354e-05,0.0,0 KOMPSAT 3A,1 40536U 15014A   23003.39087073  .00005354  00000-0  31396-3 0  9996,2 40536  97.5536 308.5065 0004504  81.4642  71.4342 15.12177113429252,6907.699000000001,95.227,532.675,526.453,0.0
40536,KOMPSAT 3A,PAYLOAD,2023-01-03 20:11:56,15.12182053,0.0004546000000000001,97.5538,308.9524,81.1396,4.0477,0.00031555,5.382e-05,0.0,0 KOMPSAT 3A,1 40536U 15014A   23003.84162565  .00005382  00000-0  31555-3 0  9994,2 40536  97.5538 308.9524 0004546  81.1396   4.0477 15.12182053429325,6907.684,95.227,532.689,526.409,0.0
40536,KOMPSAT 3A,PAYLOAD,2023-01-04 04:15:40,15.12185757,0.0004526,97.554,309.2848,81.4787,31.2966,0.00031655,5.400000000000001e-05,0.0,0 KOMPSAT 3A,1 40536U 15014A   23004.17755325  .00005400  00000-0  31655-3 0  9995,2 40536  97.5540 309.2848 0004526  81.4787  31.2966 15.12185757429370,6907.6730000000025,95.226,532.664,526.411,0.0
40536,KOMPSAT 3A,PAYLOAD,2023-01-04 14:03:25,15.12189761,0.0004527,97.5539,309.6885,80.3916,92.9168,0.00031505,5.374e-05,0.0,0 KOMPSAT 3A,1 40536U 15014A   23004.58570772  .00005374  00000-0  31505-3 0  9995,2 40536  97.5539 309.6885 0004527  80.3916  92.9168 15.12189761429430,6907.66,95.226,532.653,526.398,0.0
